[{"OBJECT_NAME":"STARLINK-33858","OBJECT_ID":"2025-094X","EPOCH":"2026-03-09T21:19:27.102432","MEAN_MOTION":14.98295766,"ECCENTRICITY":0.00030228,"INCLINATION":70.0024,"RA_OF_ASC_NODE":233.9225,"ARG_OF_PERICENTER":280.7717,"MEAN_ANOMALY":79.3101,"EPHEMERIS_TYPE":0,"CLASSIFICATION_TYPE":"U","NORAD_CAT_ID":63885,"ELEMENT_SET_NO":999,"REV_AT_EPOCH":4723,"BSTAR":-0.0026464788,"MEAN_MOTION_DOT":-0.00031501,"MEAN_MOTION_DDOT":0},{"OBJECT_NAME":"COSMOS 2251 DEB","OBJECT_ID":"1993-036AWS","EPOCH":"2026-03-08T21:06:04.726368","MEAN_MOTION":14.95261151,"ECCENTRICITY":0.00284276,"INCLINATION":73.9951,"RA_OF_ASC_NODE":273.3001,"ARG_OF_PERICENTER":6.025,"MEAN_ANOMALY":354.1269,"EPHEMERIS_TYPE":0,"CLASSIFICATION_TYPE":"U","NORAD_CAT_ID":36000,"ELEMENT_SET_NO":999,"REV_AT_EPOCH":61455,"BSTAR":0.0026863031,"MEAN_MOTION_DOT":0.00029903,"MEAN_MOTION_DDOT":0}]
